[{"OBJECT_NAME":"STARLINK-1955","OBJECT_ID":"2021-009J","EPOCH":"2025-12-18T08:00:01.999872","MEAN_MOTION":15.54178266,"ECCENTRICITY":0.00041187,"INCLINATION":53.0484,"RA_OF_ASC_NODE":8.8198,"ARG_OF_PERICENTER":348.6651,"MEAN_ANOMALY":252.9236,"EPHEMERIS_TYPE":0,"CLASSIFICATION_TYPE":"U","NORAD_CAT_ID":47556,"ELEMENT_SET_NO":999,"REV_AT_EPOCH":581,"BSTAR":0.0018626442,"MEAN_MOTION_DOT":0.00124876,"MEAN_MOTION_DDOT":0},{"OBJECT_NAME":"STARLINK-1958","OBJECT_ID":"2021-009M","EPOCH":"2025-12-18T07:07:18.400800","MEAN_MOTION":15.45039764,"ECCENTRICITY":0.00119921,"INCLINATION":53.054,"RA_OF_ASC_NODE":356.0116,"ARG_OF_PERICENTER":33.2052,"MEAN_ANOMALY":326.9704,"EPHEMERIS_TYPE":0,"CLASSIFICATION_TYPE":"U","NORAD_CAT_ID":47559,"ELEMENT_SET_NO":999,"REV_AT_EPOCH":26896,"BSTAR":0.0026574842,"MEAN_MOTION_DOT":0.00129505,"MEAN_MOTION_DDOT":0},{"OBJECT_NAME":"STARLINK-1962","OBJECT_ID":"2021-009R","EPOCH":"2025-12-18T08:00:01.999872","MEAN_MOTION":15.20032829,"ECCENTRICITY":0.0001715,"INCLINATION":53.055,"RA_OF_ASC_NODE":26.4784,"ARG_OF_PERICENTER":57.6015,"MEAN_ANOMALY":14.2564,"EPHEMERIS_TYPE":0,"CLASSIFICATION_TYPE":"U","NORAD_CAT_ID":47563,"ELEMENT_SET_NO":999,"REV_AT_EPOCH":569,"BSTAR":0.063055275,"MEAN_MOTION_DOT":0.01510038,"MEAN_MOTION_DDOT":0},{"OBJECT_NAME":"STARLINK-1964","OBJECT_ID":"2021-009T","EPOCH":"2025-12-18T06:36:07.191936","MEAN_MOTION":15.47454677,"ECCENTRICITY":0.00091571,"INCLINATION":53.0519,"RA_OF_ASC_NODE":4.3032,"ARG_OF_PERICENTER":27.9112,"MEAN_ANOMALY":332.2385,"EPHEMERIS_TYPE":0,"CLASSIFICATION_TYPE":"U","NORAD_CAT_ID":47565,"ELEMENT_SET_NO":999,"REV_AT_EPOCH":26884,"BSTAR":0.0023891085,"MEAN_MOTION_DOT":0.00126311,"MEAN_MOTION_DDOT":0},{"OBJECT_NAME":"STARLINK-1965","OBJECT_ID":"2021-009U","EPOCH":"2025-12-18T08:00:01.999872","MEAN_MOTION":15.51300016,"ECCENTRICITY":0.00036335,"INCLINATION":53.0267,"RA_OF_ASC_NODE":322.4813,"ARG_OF_PERICENTER":300.5316,"MEAN_ANOMALY":188.4391,"EPHEMERIS_TYPE":0,"CLASSIFICATION_TYPE":"U","NORAD_CAT_ID":47566,"ELEMENT_SET_NO":999,"REV_AT_EPOCH":590,"BSTAR":0.0030375921,"MEAN_MOTION_DOT":0.00185219,"MEAN_MOTION_DDOT":0},{"OBJECT_NAME":"STARLINK-1967","OBJECT_ID":"2021-009W","EPOCH":"2025-12-18T08:00:01.999872","MEAN_MOTION":15.41715326,"ECCENTRICITY":0.00011802,"INCLINATION":53.0534,"RA_OF_ASC_NODE":36.4311,"ARG_OF_PERICENTER":49.8563,"MEAN_ANOMALY":197.9545,"EPHEMERIS_TYPE":0,"CLASSIFICATION_TYPE":"U","NORAD_CAT_ID":47568,"ELEMENT_SET_NO":999,"REV_AT_EPOCH":592,"BSTAR":0.00027424762,"MEAN_MOTION_DOT":0.00011367,"MEAN_MOTION_DDOT":0},{"OBJECT_NAME":"STARLINK-1971","OBJECT_ID":"2021-009AA","EPOCH":"2025-12-18T05:59:08.036448","MEAN_MOTION":15.51708487,"ECCENTRICITY":0.00111427,"INCLINATION":53.0533,"RA_OF_ASC_NODE":3.7015,"ARG_OF_PERICENTER":27.8784,"MEAN_ANOMALY":332.282,"EPHEMERIS_TYPE":0,"CLASSIFICATION_TYPE":"U","NORAD_CAT_ID":47572,"ELEMENT_SET_NO":999,"REV_AT_EPOCH":26885,"BSTAR":0.004028476,"MEAN_MOTION_DOT":0.00251993,"MEAN_MOTION_DDOT":0},{"OBJECT_NAME":"STARLINK-1975","OBJECT_ID":"2021-009AB","EPOCH":"2025-12-18T05:54:04.700736","MEAN_MOTION":15.48605286,"ECCENTRICITY":0.00033348,"INCLINATION":53.0606,"RA_OF_ASC_NODE":347.2909,"ARG_OF_PERICENTER":3.5012,"MEAN_ANOMALY":356.6019,"EPHEMERIS_TYPE":0,"CLASSIFICATION_TYPE":"U","NORAD_CAT_ID":47573,"ELEMENT_SET_NO":999,"REV_AT_EPOCH":26908,"BSTAR":0.0026443653,"MEAN_MOTION_DOT":0.00145773,"MEAN_MOTION_DDOT":0},{"OBJECT_NAME":"STARLINK-1978","OBJECT_ID":"2021-009AE","EPOCH":"2025-12-18T08:00:01.999872","MEAN_MOTION":15.67889702,"ECCENTRICITY":0.00034435,"INCLINATION":53.0462,"RA_OF_ASC_NODE":312.8907,"ARG_OF_PERICENTER":46.3623,"MEAN_ANOMALY":74.8789,"EPHEMERIS_TYPE":0,"CLASSIFICATION_TYPE":"U","NORAD_CAT_ID":47576,"ELEMENT_SET_NO":999,"REV_AT_EPOCH":590,"BSTAR":0.00268869,"MEAN_MOTION_DOT":0.00313467,"MEAN_MOTION_DDOT":0},{"OBJECT_NAME":"STARLINK-1979","OBJECT_ID":"2021-009AF","EPOCH":"2025-12-18T08:00:01.999872","MEAN_MOTION":15.72778973,"ECCENTRICITY":0.00105162,"INCLINATION":53.043,"RA_OF_ASC_NODE":347.9092,"ARG_OF_PERICENTER":54.0398,"MEAN_ANOMALY":341.8618,"EPHEMERIS_TYPE":0,"CLASSIFICATION_TYPE":"U","NORAD_CAT_ID":47577,"ELEMENT_SET_NO":999,"REV_AT_EPOCH":595,"BSTAR":0.0016476902,"MEAN_MOTION_DOT":0.0023359,"MEAN_MOTION_DDOT":0},{"OBJECT_NAME":"STARLINK-1986","OBJECT_ID":"2021-009AL","EPOCH":"2025-12-18T05:15:39.940992","MEAN_MOTION":15.6771496,"ECCENTRICITY":0.00089099,"INCLINATION":53.0417,"RA_OF_ASC_NODE":337.8119,"ARG_OF_PERICENTER":71.3976,"MEAN_ANOMALY":288.8007,"EPHEMERIS_TYPE":0,"CLASSIFICATION_TYPE":"U","NORAD_CAT_ID":47582,"ELEMENT_SET_NO":999,"REV_AT_EPOCH":26921,"BSTAR":0.0011787616,"MEAN_MOTION_DOT":0.00133385,"MEAN_MOTION_DDOT":0},{"OBJECT_NAME":"STARLINK-1991","OBJECT_ID":"2021-009AR","EPOCH":"2025-12-18T06:49:23.370528","MEAN_MOTION":15.43357348,"ECCENTRICITY":0.00107042,"INCLINATION":53.0528,"RA_OF_ASC_NODE":6.7357,"ARG_OF_PERICENTER":22.0858,"MEAN_ANOMALY":338.0606,"EPHEMERIS_TYPE":0,"CLASSIFICATION_TYPE":"U","NORAD_CAT_ID":47587,"ELEMENT_SET_NO":999,"REV_AT_EPOCH":26881,"BSTAR":0.0022827745,"MEAN_MOTION_DOT":0.0010461,"MEAN_MOTION_DDOT":0},{"OBJECT_NAME":"STARLINK-1993","OBJECT_ID":"2021-009AS","EPOCH":"2025-12-18T06:50:21.542784","MEAN_MOTION":15.47725818,"ECCENTRICITY":0.00090494,"INCLINATION":53.0537,"RA_OF_ASC_NODE":14.6943,"ARG_OF_PERICENTER":21.5334,"MEAN_ANOMALY":338.6052,"EPHEMERIS_TYPE":0,"CLASSIFICATION_TYPE":"U","NORAD_CAT_ID":47588,"ELEMENT_SET_NO":999,"REV_AT_EPOCH":26870,"BSTAR":0.0024972454,"MEAN_MOTION_DOT":0.00133417,"MEAN_MOTION_DDOT":0},{"OBJECT_NAME":"STARLINK-1994","OBJECT_ID":"2021-009AT","EPOCH":"2025-12-18T06:34:15.905280","MEAN_MOTION":15.06395239,"ECCENTRICITY":0.00013151,"INCLINATION":53.0553,"RA_OF_ASC_NODE":27.1113,"ARG_OF_PERICENTER":86.0271,"MEAN_ANOMALY":274.0869,"EPHEMERIS_TYPE":0,"CLASSIFICATION_TYPE":"U","NORAD_CAT_ID":47589,"ELEMENT_SET_NO":999,"REV_AT_EPOCH":26852,"BSTAR":2.053508e-6,"MEAN_MOTION_DOT":-2.51e-6,"MEAN_MOTION_DDOT":0},{"OBJECT_NAME":"STARLINK-1995","OBJECT_ID":"2021-009AU","EPOCH":"2025-12-18T08:00:01.999872","MEAN_MOTION":15.1442399,"ECCENTRICITY":0.00015813,"INCLINATION":53.055,"RA_OF_ASC_NODE":46.7189,"ARG_OF_PERICENTER":51.9095,"MEAN_ANOMALY":24.3228,"EPHEMERIS_TYPE":0,"CLASSIFICATION_TYPE":"U","NORAD_CAT_ID":47590,"ELEMENT_SET_NO":999,"REV_AT_EPOCH":570,"BSTAR":0.0027876884,"MEAN_MOTION_DOT":0.0005189,"MEAN_MOTION_DDOT":0},{"OBJECT_NAME":"STARLINK-1997","OBJECT_ID":"2021-009AW","EPOCH":"2025-12-18T02:44:04.924032","MEAN_MOTION":15.47119482,"ECCENTRICITY":0.00090307,"INCLINATION":53.0523,"RA_OF_ASC_NODE":35.2648,"ARG_OF_PERICENTER":359.3196,"MEAN_ANOMALY":0.7797,"EPHEMERIS_TYPE":0,"CLASSIFICATION_TYPE":"U","NORAD_CAT_ID":47592,"ELEMENT_SET_NO":999,"REV_AT_EPOCH":26839,"BSTAR":0.0018621014,"MEAN_MOTION_DOT":0.00096841,"MEAN_MOTION_DDOT":0}]
