STARLINK-1955           
1 47556U 21009J   25352.33335648  .00124876  00000+0  18626-2 0  9993
2 47556  53.0484   8.8198 0004118 348.6651 252.9236 15.54178266  5812
STARLINK-1958           
1 47559U 21009M   25352.29674075  .00129505  00000+0  26575-2 0  9997
2 47559  53.0540 356.0116 0011992  33.2052 326.9704 15.45039764268964
STARLINK-1962           
1 47563U 21009R   25352.33335648  .01510038  00000+0  63055-1 0  9996
2 47563  53.0550  26.4784 0001715  57.6015  14.2564 15.20032829  5698
STARLINK-1964           
1 47565U 21009T   25352.27508324  .00126311  00000+0  23891-2 0  9995
2 47565  53.0519   4.3032 0009157  27.9112 332.2385 15.47454677268842
STARLINK-1965           
1 47566U 21009U   25352.33335648  .00185219  00000+0  30376-2 0  9998
2 47566  53.0267 322.4813 0003633 300.5316 188.4391 15.51300016  5909
STARLINK-1967           
1 47568U 21009W   25352.33335648  .00011367  00000+0  27425-3 0  9994
2 47568  53.0534  36.4311 0001180  49.8563 197.9545 15.41715326  5926
STARLINK-1971           
1 47572U 21009AA  25352.24939857  .00251993  00000+0  40285-2 0  9990
2 47572  53.0533   3.7015 0011142  27.8784 332.2820 15.51708487268852
STARLINK-1975           
1 47573U 21009AB  25352.24588774  .00145773  00000+0  26444-2 0  9998
2 47573  53.0606 347.2909 0003334   3.5012 356.6019 15.48605286269086
STARLINK-1978           
1 47576U 21009AE  25352.33335648  .00313467  00000+0  26887-2 0  9999
2 47576  53.0462 312.8907 0003443  46.3623  74.8789 15.67889702  5909
STARLINK-1979           
1 47577U 21009AF  25352.33335648  .00233590  00000+0  16477-2 0  9992
2 47577  53.0430 347.9092 0010516  54.0398 341.8618 15.72778973  5959
STARLINK-1986           
1 47582U 21009AL  25352.21921228  .00133385  00000+0  11788-2 0  9991
2 47582  53.0417 337.8119 0008909  71.3976 288.8007 15.67714960269218
STARLINK-1991           
1 47587U 21009AR  25352.28429827  .00104610  00000+0  22828-2 0  9997
2 47587  53.0528   6.7357 0010704  22.0858 338.0606 15.43357348268815
STARLINK-1993           
1 47588U 21009AS  25352.28497156  .00133417  00000+0  24972-2 0  9997
2 47588  53.0537  14.6943 0009049  21.5334 338.6052 15.47725818268702
STARLINK-1994           
1 47589U 21009AT  25352.27379520 -.00000251  00000+0  20535-5 0  9995
2 47589  53.0553  27.1113 0001315  86.0271 274.0869 15.06395239268527
STARLINK-1995           
1 47590U 21009AU  25352.33335648  .00051890  00000+0  27877-2 0  9994
2 47590  53.0550  46.7189 0001581  51.9095  24.3228 15.14423990  5705
STARLINK-1997           
1 47592U 21009AW  25352.11394588  .00096841  00000+0  18621-2 0  9992
2 47592  53.0523  35.2648 0009030 359.3196   0.7797 15.47119482268393
